{
  "type": "FeatureCollection",
  "features": [
    {
      "type": "Feature",
      "properties": {
        "norad_id": 31512,
        "name": "FENGYUN 1C DEB",
        "group": "fengyun-1c-debris",
        "lat": -71.57919642511787,
        "lon": 48.778682040458115,
        "alt_km": 840.2211577167345,
        "timestamp": "2025-12-26T15:29:39.722172+00:00",
        "meta_object_name": "FENGYUN 1C DEB",
        "meta_object_id": "1999-025BXB",
        "meta_epoch": "2025-12-25T12:17:48.253056",
        "meta_mean_motion": 14.43855842,
        "meta_eccentricity": 0.0144773,
        "meta_inclination": 98.8041,
        "meta_ra_of_asc_node": 255.338,
        "meta_arg_of_pericenter": 108.9791,
        "meta_mean_anomaly": 16.818,
        "meta_ephemeris_type": 0,
        "meta_classification_type": "U",
        "meta_norad_cat_id": 31512,
        "meta_element_set_no": 999,
        "meta_rev_at_epoch": 65686,
        "meta_bstar": 0.00039777,
        "meta_mean_motion_dot": 1.488e-05,
        "meta_mean_motion_ddot": 0,
        "tle_line1": "1 31512U 99025BXB 25359.51236404  .00001488  00000+0  39777-3 0  9992",
        "tle_line2": "2 31512  98.8041 255.3380 0144773 108.9791  16.8180 14.43855842656860"
      },
      "geometry": {
        "type": "Point",
        "coordinates": [
          48.778682040458115,
          -71.57919642511787
        ]
      }
    },
    {
      "type": "Feature",
      "properties": {
        "norad_id": 31513,
        "name": "FENGYUN 1C DEB",
        "group": "fengyun-1c-debris",
        "lat": -78.43075291338317,
        "lon": -131.9781960751042,
        "alt_km": 808.7742191804646,
        "timestamp": "2025-12-26T15:29:39.722182+00:00",
        "meta_object_name": "FENGYUN 1C DEB",
        "meta_object_id": "1999-025BXC",
        "meta_epoch": "2025-12-24T05:17:10.594464",
        "meta_mean_motion": 14.32683655,
        "meta_eccentricity": 0.00263257,
        "meta_inclination": 98.8637,
        "meta_ra_of_asc_node": 95.208,
        "meta_arg_of_pericenter": 94.8916,
        "meta_mean_anomaly": 265.5274,
        "meta_ephemeris_type": 0,
        "meta_classification_type": "U",
        "meta_norad_cat_id": 31513,
        "meta_element_set_no": 999,
        "meta_rev_at_epoch": 73033,
        "meta_bstar": 0.0019178492,
        "meta_mean_motion_dot": 5.194e-05,
        "meta_mean_motion_ddot": 0,
        "tle_line1": "1 31513U 99025BXC 25358.22026151  .00005194  00000+0  19178-2 0  9996",
        "tle_line2": "2 31513  98.8637  95.2080 0026325  94.8916 265.5274 14.32683655730335"
      },
      "geometry": {
        "type": "Point",
        "coordinates": [
          -131.9781960751042,
          -78.43075291338317
        ]
      }
    },
    {
      "type": "Feature",
      "properties": {
        "norad_id": 31514,
        "name": "FENGYUN 1C DEB",
        "group": "fengyun-1c-debris",
        "lat": -42.4312482404224,
        "lon": -89.40316419399939,
        "alt_km": 846.5871901511564,
        "timestamp": "2025-12-26T15:29:39.722193+00:00",
        "meta_object_name": "FENGYUN 1C DEB",
        "meta_object_id": "1999-025BXD",
        "meta_epoch": "2025-12-24T16:22:57.611136",
        "meta_mean_motion": 14.21063174,
        "meta_eccentricity": 0.00540571,
        "meta_inclination": 99.247,
        "meta_ra_of_asc_node": 259.9789,
        "meta_arg_of_pericenter": 80.8841,
        "meta_mean_anomaly": 279.8445,
        "meta_ephemeris_type": 0,
        "meta_classification_type": "U",
        "meta_norad_cat_id": 31514,
        "meta_element_set_no": 999,
        "meta_rev_at_epoch": 69494,
        "meta_bstar": 0.0016750567,
        "meta_mean_motion_dot": 3.643e-05,
        "meta_mean_motion_ddot": 0,
        "tle_line1": "1 31514U 99025BXD 25358.68261124  .00003643  00000+0  16751-2 0  9999",
        "tle_line2": "2 31514  99.2470 259.9789 0054057  80.8841 279.8445 14.21063174694946"
      },
      "geometry": {
        "type": "Point",
        "coordinates": [
          -89.40316419399939,
          -42.4312482404224
        ]
      }
    },
    {
      "type": "Feature",
      "properties": {
        "norad_id": 31516,
        "name": "FENGYUN 1C DEB",
        "group": "fengyun-1c-debris",
        "lat": 34.73064899088059,
        "lon": -57.16208577123222,
        "alt_km": 740.00984227138,
        "timestamp": "2025-12-26T15:29:39.722203+00:00",
        "meta_object_name": "FENGYUN 1C DEB",
        "meta_object_id": "1999-025BXF",
        "meta_epoch": "2025-12-26T06:31:50.881152",
        "meta_mean_motion": 14.2544408,
        "meta_eccentricity": 0.01489343,
        "meta_inclination": 98.8325,
        "meta_ra_of_asc_node": 116.2739,
        "meta_arg_of_pericenter": 199.3049,
        "meta_mean_anomaly": 191.2795,
        "meta_ephemeris_type": 0,
        "meta_classification_type": "U",
        "meta_norad_cat_id": 31516,
        "meta_element_set_no": 999,
        "meta_rev_at_epoch": 96685,
        "meta_bstar": 0.00052828878,
        "meta_mean_motion_dot": 1.354e-05,
        "meta_mean_motion_ddot": 0,
        "tle_line1": "1 31516U 99025BXF 25360.27211668  .00001354  00000+0  52829-3 0  9991",
        "tle_line2": "2 31516  98.8325 116.2739 0148934 199.3049 191.2795 14.25444080966856"
      },
      "geometry": {
        "type": "Point",
        "coordinates": [
          -57.16208577123222,
          34.73064899088059
        ]
      }
    },
    {
      "type": "Feature",
      "properties": {
        "norad_id": 31519,
        "name": "FENGYUN 1C DEB",
        "group": "fengyun-1c-debris",
        "lat": 15.591455750273788,
        "lon": 179.2540653884641,
        "alt_km": 784.7027443594943,
        "timestamp": "2025-12-26T15:29:39.722213+00:00",
        "meta_object_name": "FENGYUN 1C DEB",
        "meta_object_id": "1999-025BXJ",
        "meta_epoch": "2025-12-23T17:33:15.370560",
        "meta_mean_motion": 14.23419226,
        "meta_eccentricity": 0.0052121,
        "meta_inclination": 98.5739,
        "meta_ra_of_asc_node": 354.002,
        "meta_arg_of_pericenter": 210.1649,
        "meta_mean_anomaly": 149.6526,
        "meta_ephemeris_type": 0,
        "meta_classification_type": "U",
        "meta_norad_cat_id": 31519,
        "meta_element_set_no": 999,
        "meta_rev_at_epoch": 64921,
        "meta_bstar": 0.00036766676,
        "meta_mean_motion_dot": 8.03e-06,
        "meta_mean_motion_ddot": 0,
        "tle_line1": "1 31519U 99025BXJ 25357.73142790  .00000803  00000+0  36767-3 0  9991",
        "tle_line2": "2 31519  98.5739 354.0020 0052121 210.1649 149.6526 14.23419226649219"
      },
      "geometry": {
        "type": "Point",
        "coordinates": [
          179.2540653884641,
          15.591455750273788
        ]
      }
    },
    {
      "type": "Feature",
      "properties": {
        "norad_id": 31522,
        "name": "FENGYUN 1C DEB",
        "group": "fengyun-1c-debris",
        "lat": -10.110321391581534,
        "lon": 19.840228255485936,
        "alt_km": 915.3727101804143,
        "timestamp": "2025-12-26T15:29:39.722223+00:00",
        "meta_object_name": "FENGYUN 1C DEB",
        "meta_object_id": "1999-025BXM",
        "meta_epoch": "2025-12-26T06:59:30.087744",
        "meta_mean_motion": 14.0401721,
        "meta_eccentricity": 0.00436354,
        "meta_inclination": 98.7064,
        "meta_ra_of_asc_node": 17.9351,
        "meta_arg_of_pericenter": 162.6078,
        "meta_mean_anomaly": 197.6596,
        "meta_ephemeris_type": 0,
        "meta_classification_type": "U",
        "meta_norad_cat_id": 31522,
        "meta_element_set_no": 999,
        "meta_rev_at_epoch": 95186,
        "meta_bstar": 0.00043578642,
        "meta_mean_motion_dot": 6.53e-06,
        "meta_mean_motion_ddot": 0,
        "tle_line1": "1 31522U 99025BXM 25360.29132046  .00000653  00000+0  43579-3 0  9995",
        "tle_line2": "2 31522  98.7064  17.9351 0043635 162.6078 197.6596 14.04017210951868"
      },
      "geometry": {
        "type": "Point",
        "coordinates": [
          19.840228255485936,
          -10.110321391581534
        ]
      }
    },
    {
      "type": "Feature",
      "properties": {
        "norad_id": 31523,
        "name": "FENGYUN 1C DEB",
        "group": "fengyun-1c-debris",
        "lat": -32.763262000314434,
        "lon": 53.59718954754483,
        "alt_km": 859.032179274097,
        "timestamp": "2025-12-26T15:29:39.722243+00:00",
        "meta_object_name": "FENGYUN 1C DEB",
        "meta_object_id": "1999-025BXN",
        "meta_epoch": "2025-12-18T09:00:27.931392",
        "meta_mean_motion": 14.13860711,
        "meta_eccentricity": 0.00394646,
        "meta_inclination": 98.7566,
        "meta_ra_of_asc_node": 39.8049,
        "meta_arg_of_pericenter": 94.418,
        "meta_mean_anomaly": 281.6008,
        "meta_ephemeris_type": 0,
        "meta_classification_type": "U",
        "meta_norad_cat_id": 31523,
        "meta_element_set_no": 999,
        "meta_rev_at_epoch": 96087,
        "meta_bstar": 2.5829225e-05,
        "meta_mean_motion_dot": 6e-08,
        "meta_mean_motion_ddot": 0,
        "tle_line1": "1 31523U 99025BXN 25352.37532328  .00000006  00000+0  25829-4 0  9994",
        "tle_line2": "2 31523  98.7566  39.8049 0039464  94.4180 281.6008 14.13860711960879"
      },
      "geometry": {
        "type": "Point",
        "coordinates": [
          53.59718954754483,
          -32.763262000314434
        ]
      }
    }
  ]
}